stk.v.4.3 

BEGIN Ephemeris 
 
NumberOfEphemerisPoints		146 
ScenarioEpoch	    3 Sep 2020 18:21:18.203326464 
InterpolationMethod		Lagrange 
InterpolationOrder		5 
CentralBody				Earth 
CoordinateSystem			TEME 
CoordinateSystemEpoch	  3 Sep 2020 18:21:18.203326464 
DistanceUnit			Kilometers 
 
EphemerisTimePosVel 
 
       0.00000000   -2317.80492128   -6773.15637200       0.03991673  0.446926427 -0.143140973  7.448811720
 END Ephemeris 
